[{"OBJECT_NAME":"STARLINK-2446","OBJECT_ID":"2021-018BK","EPOCH":"2026-01-30T08:00:01.000224","MEAN_MOTION":15.19302547,"ECCENTRICITY":0.00017884,"INCLINATION":53.1107,"RA_OF_ASC_NODE":63.4436,"ARG_OF_PERICENTER":78.1316,"MEAN_ANOMALY":41.1631,"EPHEMERIS_TYPE":0,"CLASSIFICATION_TYPE":"U","NORAD_CAT_ID":47844,"ELEMENT_SET_NO":999,"REV_AT_EPOCH":579,"BSTAR":0.0007716453,"MEAN_MOTION_DOT":0.00016208,"MEAN_MOTION_DDOT":0},{"OBJECT_NAME":"STARLINK-2453","OBJECT_ID":"2021-018BL","EPOCH":"2026-01-30T05:37:26.297760","MEAN_MOTION":15.06406959,"ECCENTRICITY":0.00016828,"INCLINATION":53.0561,"RA_OF_ASC_NODE":64.249,"ARG_OF_PERICENTER":123.1929,"MEAN_ANOMALY":236.9222,"EPHEMERIS_TYPE":0,"CLASSIFICATION_TYPE":"U","NORAD_CAT_ID":47845,"ELEMENT_SET_NO":999,"REV_AT_EPOCH":27080,"BSTAR":-0.00028022237,"MEAN_MOTION_DOT":-4.454e-5,"MEAN_MOTION_DDOT":0},{"OBJECT_NAME":"STARLINK-2280","OBJECT_ID":"2021-021B","EPOCH":"2026-01-29T19:54:59.274144","MEAN_MOTION":15.29357143,"ECCENTRICITY":0.00014696,"INCLINATION":53.1582,"RA_OF_ASC_NODE":78.2159,"ARG_OF_PERICENTER":95.8298,"MEAN_ANOMALY":264.287,"EPHEMERIS_TYPE":0,"CLASSIFICATION_TYPE":"U","NORAD_CAT_ID":47861,"ELEMENT_SET_NO":999,"REV_AT_EPOCH":27045,"BSTAR":0.00034985375,"MEAN_MOTION_DOT":9.753e-5,"MEAN_MOTION_DDOT":0},{"OBJECT_NAME":"STARLINK-2291","OBJECT_ID":"2021-021C","EPOCH":"2026-01-30T08:00:01.000224","MEAN_MOTION":15.213377,"ECCENTRICITY":0.0001712,"INCLINATION":53.1183,"RA_OF_ASC_NODE":73.1615,"ARG_OF_PERICENTER":80.915,"MEAN_ANOMALY":99.5666,"EPHEMERIS_TYPE":0,"CLASSIFICATION_TYPE":"U","NORAD_CAT_ID":47862,"ELEMENT_SET_NO":999,"REV_AT_EPOCH":559,"BSTAR":0.035412214,"MEAN_MOTION_DOT":0.00863647,"MEAN_MOTION_DDOT":0},{"OBJECT_NAME":"STARLINK-2326","OBJECT_ID":"2021-021L","EPOCH":"2026-01-30T08:00:01.000224","MEAN_MOTION":15.15537749,"ECCENTRICITY":0.00013571,"INCLINATION":53.0926,"RA_OF_ASC_NODE":98.6383,"ARG_OF_PERICENTER":114.2385,"MEAN_ANOMALY":105.2971,"EPHEMERIS_TYPE":0,"CLASSIFICATION_TYPE":"U","NORAD_CAT_ID":47870,"ELEMENT_SET_NO":999,"REV_AT_EPOCH":579,"BSTAR":0.059302934,"MEAN_MOTION_DOT":0.01227106,"MEAN_MOTION_DDOT":0},{"OBJECT_NAME":"STARLINK-2329","OBJECT_ID":"2021-021P","EPOCH":"2026-01-30T08:00:01.000224","MEAN_MOTION":15.20180189,"ECCENTRICITY":0.00013968,"INCLINATION":53.1131,"RA_OF_ASC_NODE":73.4307,"ARG_OF_PERICENTER":89.0578,"MEAN_ANOMALY":103.1103,"EPHEMERIS_TYPE":0,"CLASSIFICATION_TYPE":"U","NORAD_CAT_ID":47873,"ELEMENT_SET_NO":999,"REV_AT_EPOCH":579,"BSTAR":0.069210914,"MEAN_MOTION_DOT":0.01653723,"MEAN_MOTION_DDOT":0},{"OBJECT_NAME":"STARLINK-2330","OBJECT_ID":"2021-021Q","EPOCH":"2026-01-30T06:43:07.982400","MEAN_MOTION":15.06397431,"ECCENTRICITY":0.0001701,"INCLINATION":53.0557,"RA_OF_ASC_NODE":29.0596,"ARG_OF_PERICENTER":94.4874,"MEAN_ANOMALY":265.6309,"EPHEMERIS_TYPE":0,"CLASSIFICATION_TYPE":"U","NORAD_CAT_ID":47874,"ELEMENT_SET_NO":999,"REV_AT_EPOCH":27117,"BSTAR":-7.1102252e-5,"MEAN_MOTION_DOT":-1.34e-5,"MEAN_MOTION_DDOT":0},{"OBJECT_NAME":"STARLINK-2336","OBJECT_ID":"2021-021V","EPOCH":"2026-01-30T08:00:01.000224","MEAN_MOTION":15.1613068,"ECCENTRICITY":0.00010934,"INCLINATION":53.0953,"RA_OF_ASC_NODE":98.5462,"ARG_OF_PERICENTER":80.2704,"MEAN_ANOMALY":30.7948,"EPHEMERIS_TYPE":0,"CLASSIFICATION_TYPE":"U","NORAD_CAT_ID":47879,"ELEMENT_SET_NO":999,"REV_AT_EPOCH":579,"BSTAR":0.027215843,"MEAN_MOTION_DOT":0.00567661,"MEAN_MOTION_DDOT":0},{"OBJECT_NAME":"STARLINK-2342","OBJECT_ID":"2021-021Z","EPOCH":"2026-01-30T03:43:58.742400","MEAN_MOTION":15.29370447,"ECCENTRICITY":0.00014013,"INCLINATION":53.162,"RA_OF_ASC_NODE":87.03,"ARG_OF_PERICENTER":92.405,"MEAN_ANOMALY":267.7111,"EPHEMERIS_TYPE":0,"CLASSIFICATION_TYPE":"U","NORAD_CAT_ID":47883,"ELEMENT_SET_NO":999,"REV_AT_EPOCH":27052,"BSTAR":0.00016179725,"MEAN_MOTION_DOT":4.318e-5,"MEAN_MOTION_DDOT":0},{"OBJECT_NAME":"STARLINK-2343","OBJECT_ID":"2021-021AA","EPOCH":"2026-01-30T04:51:01.046016","MEAN_MOTION":15.06385995,"ECCENTRICITY":0.00012518,"INCLINATION":53.0548,"RA_OF_ASC_NODE":94.3966,"ARG_OF_PERICENTER":81.3207,"MEAN_ANOMALY":278.7923,"EPHEMERIS_TYPE":0,"CLASSIFICATION_TYPE":"U","NORAD_CAT_ID":47884,"ELEMENT_SET_NO":999,"REV_AT_EPOCH":27024,"BSTAR":-1.6386382e-5,"MEAN_MOTION_DOT":-5.25e-6,"MEAN_MOTION_DDOT":0},{"OBJECT_NAME":"STARLINK-2346","OBJECT_ID":"2021-021AD","EPOCH":"2026-01-30T03:42:00.445248","MEAN_MOTION":15.06400262,"ECCENTRICITY":0.00012773,"INCLINATION":53.0559,"RA_OF_ASC_NODE":94.6148,"ARG_OF_PERICENTER":89.0005,"MEAN_ANOMALY":271.113,"EPHEMERIS_TYPE":0,"CLASSIFICATION_TYPE":"U","NORAD_CAT_ID":47887,"ELEMENT_SET_NO":999,"REV_AT_EPOCH":27024,"BSTAR":6.2924408e-5,"MEAN_MOTION_DOT":6.56e-6,"MEAN_MOTION_DDOT":0},{"OBJECT_NAME":"STARLINK-2354","OBJECT_ID":"2021-021AL","EPOCH":"2026-01-30T03:38:02.706144","MEAN_MOTION":15.06382392,"ECCENTRICITY":0.0001441,"INCLINATION":53.0537,"RA_OF_ASC_NODE":84.6268,"ARG_OF_PERICENTER":93.2915,"MEAN_ANOMALY":266.8239,"EPHEMERIS_TYPE":0,"CLASSIFICATION_TYPE":"U","NORAD_CAT_ID":47894,"ELEMENT_SET_NO":999,"REV_AT_EPOCH":27033,"BSTAR":0.00044565473,"MEAN_MOTION_DOT":6.36e-5,"MEAN_MOTION_DDOT":0},{"OBJECT_NAME":"STARLINK-2355","OBJECT_ID":"2021-021AM","EPOCH":"2026-01-30T03:53:57.136704","MEAN_MOTION":15.06399528,"ECCENTRICITY":0.00012831,"INCLINATION":53.054,"RA_OF_ASC_NODE":84.5782,"ARG_OF_PERICENTER":86.378,"MEAN_ANOMALY":273.7356,"EPHEMERIS_TYPE":0,"CLASSIFICATION_TYPE":"U","NORAD_CAT_ID":47895,"ELEMENT_SET_NO":999,"REV_AT_EPOCH":27036,"BSTAR":0.00061702203,"MEAN_MOTION_DOT":8.921e-5,"MEAN_MOTION_DDOT":0},{"OBJECT_NAME":"STARLINK-2356","OBJECT_ID":"2021-021AN","EPOCH":"2026-01-30T08:00:01.000224","MEAN_MOTION":15.15013303,"ECCENTRICITY":8.821e-5,"INCLINATION":53.0905,"RA_OF_ASC_NODE":98.6605,"ARG_OF_PERICENTER":86.3255,"MEAN_ANOMALY":242.1305,"EPHEMERIS_TYPE":0,"CLASSIFICATION_TYPE":"U","NORAD_CAT_ID":47896,"ELEMENT_SET_NO":999,"REV_AT_EPOCH":579,"BSTAR":0.059754012,"MEAN_MOTION_DOT":0.01217632,"MEAN_MOTION_DDOT":0},{"OBJECT_NAME":"STARLINK-2358","OBJECT_ID":"2021-021AQ","EPOCH":"2026-01-29T21:21:10.499040","MEAN_MOTION":15.06408885,"ECCENTRICITY":0.00016059,"INCLINATION":53.0558,"RA_OF_ASC_NODE":85.7966,"ARG_OF_PERICENTER":108.133,"MEAN_ANOMALY":251.9834,"EPHEMERIS_TYPE":0,"CLASSIFICATION_TYPE":"U","NORAD_CAT_ID":47898,"ELEMENT_SET_NO":999,"REV_AT_EPOCH":27029,"BSTAR":0.00019961941,"MEAN_MOTION_DOT":2.694e-5,"MEAN_MOTION_DDOT":0},{"OBJECT_NAME":"STARLINK-2361","OBJECT_ID":"2021-021AT","EPOCH":"2026-01-30T08:00:01.000224","MEAN_MOTION":15.21326477,"ECCENTRICITY":0.00013518,"INCLINATION":53.1174,"RA_OF_ASC_NODE":73.3717,"ARG_OF_PERICENTER":102.2829,"MEAN_ANOMALY":151.2256,"EPHEMERIS_TYPE":0,"CLASSIFICATION_TYPE":"U","NORAD_CAT_ID":47901,"ELEMENT_SET_NO":999,"REV_AT_EPOCH":579,"BSTAR":0.045011678,"MEAN_MOTION_DOT":0.01104591,"MEAN_MOTION_DDOT":0},{"OBJECT_NAME":"STARLINK-2363","OBJECT_ID":"2021-021AV","EPOCH":"2026-01-30T08:00:01.000224","MEAN_MOTION":15.2070663,"ECCENTRICITY":7.738e-5,"INCLINATION":53.1156,"RA_OF_ASC_NODE":73.1566,"ARG_OF_PERICENTER":129.1788,"MEAN_ANOMALY":154.2128,"EPHEMERIS_TYPE":0,"CLASSIFICATION_TYPE":"U","NORAD_CAT_ID":47903,"ELEMENT_SET_NO":999,"REV_AT_EPOCH":579,"BSTAR":0.033972542,"MEAN_MOTION_DOT":0.00809736,"MEAN_MOTION_DDOT":0},{"OBJECT_NAME":"STARLINK-2364","OBJECT_ID":"2021-021AW","EPOCH":"2026-01-30T08:00:01.000224","MEAN_MOTION":15.21771434,"ECCENTRICITY":0.00012976,"INCLINATION":53.1207,"RA_OF_ASC_NODE":73.3162,"ARG_OF_PERICENTER":87.7011,"MEAN_ANOMALY":127.4628,"EPHEMERIS_TYPE":0,"CLASSIFICATION_TYPE":"U","NORAD_CAT_ID":47904,"ELEMENT_SET_NO":999,"REV_AT_EPOCH":579,"BSTAR":0.062574303,"MEAN_MOTION_DOT":0.01583382,"MEAN_MOTION_DDOT":0},{"OBJECT_NAME":"STARLINK-2367","OBJECT_ID":"2021-021AZ","EPOCH":"2026-01-30T03:36:42.258240","MEAN_MOTION":15.06391916,"ECCENTRICITY":0.00012541,"INCLINATION":53.0541,"RA_OF_ASC_NODE":94.6296,"ARG_OF_PERICENTER":90.5564,"MEAN_ANOMALY":269.5568,"EPHEMERIS_TYPE":0,"CLASSIFICATION_TYPE":"U","NORAD_CAT_ID":47907,"ELEMENT_SET_NO":999,"REV_AT_EPOCH":27020,"BSTAR":5.8387895e-5,"MEAN_MOTION_DOT":5.88e-6,"MEAN_MOTION_DDOT":0},{"OBJECT_NAME":"STARLINK-2370","OBJECT_ID":"2021-021BC","EPOCH":"2026-01-30T03:48:41.612544","MEAN_MOTION":15.06367503,"ECCENTRICITY":0.00016191,"INCLINATION":53.055,"RA_OF_ASC_NODE":84.7579,"ARG_OF_PERICENTER":111.7717,"MEAN_ANOMALY":248.3445,"EPHEMERIS_TYPE":0,"CLASSIFICATION_TYPE":"U","NORAD_CAT_ID":47910,"ELEMENT_SET_NO":999,"REV_AT_EPOCH":27039,"BSTAR":-0.00037982015,"MEAN_MOTION_DOT":-5.929e-5,"MEAN_MOTION_DDOT":0},{"OBJECT_NAME":"STARLINK-2371","OBJECT_ID":"2021-021BD","EPOCH":"2026-01-30T08:00:01.000224","MEAN_MOTION":15.17548632,"ECCENTRICITY":0.00011754,"INCLINATION":53.1017,"RA_OF_ASC_NODE":98.8098,"ARG_OF_PERICENTER":81.7785,"MEAN_ANOMALY":276.4197,"EPHEMERIS_TYPE":0,"CLASSIFICATION_TYPE":"U","NORAD_CAT_ID":47911,"ELEMENT_SET_NO":999,"REV_AT_EPOCH":579,"BSTAR":0.038320187,"MEAN_MOTION_DOT":0.00835797,"MEAN_MOTION_DDOT":0},{"OBJECT_NAME":"STARLINK-2378","OBJECT_ID":"2021-021BJ","EPOCH":"2026-01-30T08:00:01.000224","MEAN_MOTION":15.21668469,"ECCENTRICITY":0.00013492,"INCLINATION":53.1203,"RA_OF_ASC_NODE":73.2789,"ARG_OF_PERICENTER":81.4349,"MEAN_ANOMALY":214.7694,"EPHEMERIS_TYPE":0,"CLASSIFICATION_TYPE":"U","NORAD_CAT_ID":47916,"ELEMENT_SET_NO":999,"REV_AT_EPOCH":580,"BSTAR":0.02991299,"MEAN_MOTION_DOT":0.00736837,"MEAN_MOTION_DDOT":0},{"OBJECT_NAME":"STARLINK-2405","OBJECT_ID":"2021-021BM","EPOCH":"2026-01-29T11:14:44.835936","MEAN_MOTION":15.06392658,"ECCENTRICITY":0.00012919,"INCLINATION":53.0551,"RA_OF_ASC_NODE":97.6909,"ARG_OF_PERICENTER":86.7417,"MEAN_ANOMALY":273.372,"EPHEMERIS_TYPE":0,"CLASSIFICATION_TYPE":"U","NORAD_CAT_ID":47919,"ELEMENT_SET_NO":999,"REV_AT_EPOCH":27012,"BSTAR":-0.00081764725,"MEAN_MOTION_DOT":-0.00012437,"MEAN_MOTION_DDOT":0}]
